IRIDIUM 921 [-]         
1 24873U 97034E   24056.84582166  .00029510  00000+0  94162-3 0  9995
2 24873  86.3893 343.4030 0003614  19.7433 340.3956 15.32360010457941
IRIDIUM 26 [-]          
1 24903U 97043A   24056.74658464  .00000583  00000+0  19328-3 0  9993
2 24903  86.3970 310.9668 0001920  88.2588 271.8829 14.36221726388197
IRIDIUM 22 [-]          
1 24907U 97043E   24056.78523662  .00000566  00000+0  19140-3 0  9995
2 24907  86.3980 314.0982 0002128  83.7919 276.3520 14.35118260388280
DUMMY MASS 1 [-]        
1 24925U 97048A   24056.88264516  .00000833  00000+0  91989-4 0  9990
2 24925  86.3397 355.8672 0008598  50.8429 309.3558 14.86067423434223
DUMMY MASS 2 [-]        
1 24926U 97048B   24056.90105860  .00000829  00000+0  92006-4 0  9996
2 24926  86.3398 357.3807 0009654  58.3631 301.8534 14.85826720434014
IRIDIUM 29 [-]          
1 24944U 97051A   24056.89332029  .00000667  00000+0  22497-3 0  9993
2 24944  86.4012 343.9798 0002284  79.8945 280.2509 14.35574041384776
IRIDIUM 33 [-]          
1 24946U 97051C   24056.88612702  .00000472  00000+0  16113-3 0  9995
2 24946  86.3927 343.2436 0007465 180.3660 179.7531 14.34271072384316
IRIDIUM 28 [-]          
1 24948U 97051E   24056.83213702  .00000680  00000+0  22510-3 0  9998
2 24948  86.4016 341.7966 0001958  95.9264 264.2156 14.36522551385295
